OBJECT_NAME,OBJECT_ID,EPOCH,MEAN_MOTION,ECCENTRICITY,INCLINATION,RA_OF_ASC_NODE,ARG_OF_PERICENTER,MEAN_ANOMALY,EPHEMERIS_TYPE,CLASSIFICATION_TYPE,NORAD_CAT_ID,ELEMENT_SET_NO,REV_AT_EPOCH,BSTAR,MEAN_MOTION_DOT,MEAN_MOTION_DDOT
QUBE,2024-149J,2026-06-25T04:37:04.402848,15.47542431,.0002547,97.3776,262.7814,170.7599,189.3699,0,U,60476,999,10370,.63576E-3,.32703E-3,0
WREN-1,2024-149L,2026-06-25T04:23:06.297792,15.41840398,.000387,97.3767,260.3804,213.9997,146.1002,0,U,60478,999,10355,.58302E-3,.24686E-3,0
TOMORROW-S1,2024-149M,2026-06-25T03:59:26.195424,15.32820372,.0002379,97.3751,256.6135,181.9053,178.2181,0,U,60479,999,10331,.2587E-3,.8123E-4,0
FLOCK 4BE-18,2024-149N,2026-06-25T04:37:29.423424,15.42090342,.0003599,97.3730,260.0066,203.3282,156.7803,0,U,60480,999,10354,.47624E-3,.20305E-3,0
FLOCK 4BE-7,2024-149P,2026-06-25T03:26:02.448096,15.40613417,.0002816,97.3759,259.2807,203.3714,156.7405,0,U,60481,999,10347,.61113E-3,.24846E-3,0
TOMORROW-S2,2024-149T,2026-06-25T04:43:08.101920,15.32855679,.000192,97.3819,257.1403,210.7373,149.3756,0,U,60485,999,10331,.2801E-3,.8811E-4,0
FLOCK 4BE-36,2024-149U,2026-06-25T03:49:59.788992,15.42943343,.0003033,97.3747,260.6845,215.9651,144.1393,0,U,60486,999,10358,.44305E-3,.19427E-3,0
FLOCK 4BE-25,2024-149V,2026-06-24T04:12:31.129056,15.38988603,.00020432,97.3798,258.3736,191.3883,168.7316,0,U,60487,999,10331,.32795447E-3,.12582E-3,0
FLOCK 4BE-31,2024-149W,2026-06-25T04:24:11.003616,15.44374783,.0002185,97.3793,261.5885,204.0800,156.0346,0,U,60488,999,10361,.52474E-3,.24176E-3,0
FLOCK 4BE-20,2024-149X,2026-06-25T04:23:47.743008,15.38242456,.0003217,97.3697,258.2469,212.7855,147.3191,0,U,60489,999,10344,.43449E-3,.16304E-3,0
FLOCK 4BE-23,2024-149Y,2026-06-25T04:12:37.627200,15.37850756,.0002688,97.3780,258.6199,216.7923,143.3137,0,U,60490,999,10342,.41654E-3,.15427E-3,0
FLOCK 4BE-17,2024-149AA,2026-06-25T03:33:59.619744,15.39991179,.0002874,97.3772,259.5815,201.7289,158.3835,0,U,60492,999,10348,.45508E-3,.1809E-3,0
NUSAT-50 (NANCY ROMAN),2024-149AB,2026-06-24T04:00:14.586336,15.29958342,.00040307,97.3782,256.3741,154.0390,206.1053,0,U,60493,999,10319,.28330918E-3,.8143E-4,0
FLOCK 4BE-22,2024-149AC,2026-06-25T04:30:36.187776,15.41387230,.0003027,97.3735,259.8253,216.5916,143.5124,0,U,60494,999,10353,.46838E-3,.19504E-3,0
FLOCK 4BE-34,2024-149AD,2026-06-24T03:59:37.687488,15.41332675,.00026886,97.3781,259.6212,229.2728,130.8286,0,U,60495,999,10340,.35175373E-3,.1459E-3,0
TYCHE,2024-149AE,2026-06-24T03:38:40.363584,15.26036751,.00012644,97.3753,252.8761,195.2958,164.8243,0,U,60496,999,10296,.1523282E-3,.3848E-4,0
FLOCK 4BE-32,2024-149AF,2026-06-25T04:02:33.870912,15.42402436,.0003134,97.3721,260.1822,219.1369,140.9652,0,U,60497,999,10356,.47932E-3,.20651E-3,0
NUSAT-48 (HENRIETTA LEAVITT),2024-149AG,2026-06-24T05:18:00.354816,15.29963175,.00027075,97.3917,256.6834,236.8064,123.2917,0,U,60498,999,10321,.27708911E-3,.7963E-4,0
FLOCK 4BE-30,2024-149AH,2026-06-25T03:50:04.579008,15.58467781,.0005224,97.3778,261.9558,224.7180,135.3655,0,U,60499,999,10301,.22724E-2,.17673E-2,0
NUSAT-49 (KLARA DAN VON NEUMANN),2024-149AJ,2026-06-25T04:18:30.796704,15.30063030,.0000633,97.3783,257.4119,254.7396,105.3774,0,U,60500,999,10335,.35517E-3,.10262E-3,0
FLOCK 4BE-11,2024-149AK,2026-06-25T03:48:43.108992,15.43219217,.0003403,97.3704,260.4119,220.2898,139.8098,0,U,60501,999,10358,.47688E-3,.21118E-3,0
YAM-7,2024-149AN,2026-06-25T03:46:26.234976,15.31916573,.0001882,97.3787,256.3746,254.6819,105.4215,0,U,60504,999,10327,.26886E-3,.8208E-4,0
FLOCK 4BE-24,2024-149AP,2026-06-25T03:28:33.903840,15.43345151,.0003289,97.3718,260.6553,235.9380,124.1556,0,U,60505,999,10359,.53237E-3,.23692E-3,0
LUR-1,2024-149AQ,2026-06-25T03:45:21.861792,15.30198495,.0002496,97.3740,254.9272,275.3323,84.7632,0,U,60506,999,10319,.27199E-3,.7872E-4,0
TANAGER-1,2024-149AR,2026-06-24T03:43:31.777824,15.44790825,.00041531,97.2460,269.3892,272.4125,87.6649,0,U,60507,999,10411,.23583259E-4,.1017E-4,0
EAGLEEYE,2024-149AS,2026-06-25T04:37:58.033056,15.72321423,.0004851,97.3724,269.9797,218.6027,141.4891,0,U,60508,999,10419,.89102E-3,.119185E-2,0
FLOCK 4BE-29,2024-149AT,2026-06-25T03:36:17.959104,15.44380591,.0001769,97.3809,262.1433,236.7377,123.3702,0,U,60509,999,10364,.43986E-3,.20244E-3,0
TRANSPORTER-11 OBJECT AU,2024-149AU,2026-06-25T04:16:58.639872,15.40424163,.0002469,97.3732,259.9634,243.1906,116.9088,0,U,60510,999,10354,.43349E-3,.17473E-3,0
