QUBE                    
1 60476U 24149J   26176.19241207  .00032703  00000+0  63576-3 0  9995
2 60476  97.3776 262.7814 0002547 170.7599 189.3699 15.47542431103702
WREN-1                  
1 60478U 24149L   26176.18271178  .00024686  00000+0  58302-3 0  9998
2 60478  97.3767 260.3804 0003870 213.9997 146.1002 15.41840398103558
TOMORROW-S1             
1 60479U 24149M   26176.16627541  .00008123  00000+0  25870-3 0  9998
2 60479  97.3751 256.6135 0002379 181.9053 178.2181 15.32820372103315
FLOCK 4BE-18            
1 60480U 24149N   26176.19270166  .00020305  00000+0  47624-3 0  9997
2 60480  97.3730 260.0066 0003599 203.3282 156.7803 15.42090342103548
FLOCK 4BE-7             
1 60481U 24149P   26176.14308389  .00024846  00000+0  61113-3 0  9995
2 60481  97.3759 259.2807 0002816 203.3714 156.7405 15.40613417103476
TOMORROW-S2             
1 60485U 24149T   26176.19662155  .00008811  00000+0  28010-3 0  9991
2 60485  97.3819 257.1403 0001920 210.7373 149.3756 15.32855679103313
FLOCK 4BE-36            
1 60486U 24149U   26176.15971978  .00019427  00000+0  44305-3 0  9994
2 60486  97.3747 260.6845 0003033 215.9651 144.1393 15.42943343103582
FLOCK 4BE-25            
1 60487U 24149V   26175.17536029  .00012582  00000+0  32795-3 0  9995
2 60487  97.3798 258.3736 0002043 191.3883 168.7316 15.38988603103317
FLOCK 4BE-31            
1 60488U 24149W   26176.18346069  .00024176  00000+0  52474-3 0  9999
2 60488  97.3793 261.5885 0002185 204.0800 156.0346 15.44374783103613
FLOCK 4BE-20            
1 60489U 24149X   26176.18319147  .00016304  00000+0  43449-3 0  9993
2 60489  97.3697 258.2469 0003217 212.7855 147.3191 15.38242456103447
FLOCK 4BE-23            
1 60490U 24149Y   26176.17543550  .00015427  00000+0  41654-3 0  9992
2 60490  97.3780 258.6199 0002688 216.7923 143.3137 15.37850756103428
FLOCK 4BE-17            
1 60492U 24149AA  26176.14860671  .00018090  00000+0  45508-3 0  9998
2 60492  97.3772 259.5815 0002874 201.7289 158.3835 15.39991179103486
NUSAT-50 (NANCY ROMAN)  
1 60493U 24149AB  26175.16683549  .00008143  00000+0  28331-3 0  9990
2 60493  97.3782 256.3741 0004030 154.0390 206.1053 15.29958342103196
FLOCK 4BE-22            
1 60494U 24149AC  26176.18791884  .00019504  00000+0  46838-3 0  9991
2 60494  97.3735 259.8253 0003027 216.5916 143.5124 15.41387230103531
FLOCK 4BE-34            
1 60495U 24149AD  26175.16640842  .00014590  00000+0  35175-3 0  9998
2 60495  97.3781 259.6212 0002688 229.2728 130.8286 15.41332675103407
TYCHE                   
1 60496U 24149AE  26175.15185606  .00003848  00000+0  15233-3 0  9997
2 60496  97.3753 252.8761 0001264 195.2958 164.8243 15.26036751102966
FLOCK 4BE-32            
1 60497U 24149AF  26176.16844758  .00020651  00000+0  47932-3 0  9992
2 60497  97.3721 260.1822 0003134 219.1369 140.9652 15.42402436103563
NUSAT-48 (HENRIETTA LE*)
1 60498U 24149AG  26175.22083744  .00007963  00000+0  27709-3 0  9990
2 60498  97.3917 256.6834 0002707 236.8064 123.2917 15.29963175103214
FLOCK 4BE-30            
1 60499U 24149AH  26176.15977522  .00176730  00000+0  22724-2 0  9990
2 60499  97.3778 261.9558 0005224 224.7180 135.3655 15.58467781103019
NUSAT-49 (KLARA DAN VO*)
1 60500U 24149AJ  26176.17952311  .00010262  00000+0  35517-3 0  9996
2 60500  97.3783 257.4119 0000633 254.7396 105.3774 15.30063030103357
FLOCK 4BE-11            
1 60501U 24149AK  26176.15883228  .00021118  00000+0  47688-3 0  9999
2 60501  97.3704 260.4119 0003403 220.2898 139.8098 15.43219217103588
YAM-7                   
1 60504U 24149AN  26176.15724809  .00008208  00000+0  26886-3 0  9993
2 60504  97.3787 256.3746 0001882 254.6819 105.4215 15.31916573103277
FLOCK 4BE-24            
1 60505U 24149AP  26176.14483685  .00023692  00000+0  53237-3 0  9991
2 60505  97.3718 260.6553 0003289 235.9380 124.1556 15.43345151103596
LUR-1                   
1 60506U 24149AQ  26176.15650303  .00007872  00000+0  27199-3 0  9996
2 60506  97.3740 254.9272 0002496 275.3323  84.7632 15.30198495103195
TANAGER-1               
1 60507U 24149AR  26175.15522891  .00001017  00000+0  23583-4 0  9995
2 60507  97.2460 269.3892 0004153 272.4125  87.6649 15.44790825104115
EAGLEEYE                
1 60508U 24149AS  26176.19303279  .00119185  00000+0  89102-3 0  9992
2 60508  97.3724 269.9797 0004851 218.6027 141.4891 15.72321423104199
FLOCK 4BE-29            
1 60509U 24149AT  26176.15020786  .00020244  00000+0  43986-3 0  9995
2 60509  97.3809 262.1433 0001769 236.7377 123.3702 15.44380591103649
TRANSPORTER-11 OBJECT AU
1 60510U 24149AU  26176.17845648  .00017473  00000+0  43349-3 0  9994
2 60510  97.3732 259.9634 0002469 243.1906 116.9088 15.40424163103545
